SatCatId,ObjectName,LaunchYear,OrbitalPeriod,LaunchMass,StatusCode,Inclination,Status,UcsData,OrbitClassEstimated,LaunchSiteCountry,Owner,UseType,Purpose,LaunchVehicleClass,TLE1,TLE2,MeanMotion,Eccentricity,OrbitClass
62068,STARLINK-11467 [DTC],2024,91.74,-1.0,+,53.16,Active,0,LEO,USA,USA,Unknown,Unknown,Unknown,1 62068U 24217M   25068.41129626 -.00001668  00000+0 -88985-5 0  9995,2 62068  53.1585  71.8612 0001656  57.1402 302.9775 15.69731351 17803,15.69731351,0.0001656,LEO
62069,STARLINK-11460 [DTC],2024,91.74,-1.0,+,53.16,Active,0,LEO,USA,USA,Unknown,Unknown,Unknown,1 62069U 24217N   25068.38197172  .00000523  00000+0  91716-5 0  9996,2 62069  53.1572  72.3985 0001230  76.6016 283.5139 15.69713802 17735,15.69713802,0.000123,LEO
62070,STARLINK-32604,2024,93.53,-1.0,+,53.16,Active,0,LEO,USA,USA,Unknown,Unknown,Unknown,1 62070U 24217P   25068.35090043  .00000233  00000+0  15816-4 0  9998,2 62070  53.1592  92.4691 0001370  89.6859 270.4303 15.39619824 17464,15.39619824,0.000137,LEO
62071,STARLINK-32553,2024,93.53,-1.0,+,53.16,Active,0,LEO,USA,USA,Unknown,Unknown,Unknown,1 62071U 24217Q   25068.49930328  .00000784  00000+0  29596-4 0  9994,2 62071  53.1598  91.9737 0001329  94.7828 265.3328 15.39615926 17530,15.39615926,0.0001329,LEO
62072,STARLINK-32603,2024,93.53,-1.0,+,53.16,Active,0,LEO,USA,USA,Unknown,Unknown,Unknown,1 62072U 24217R   25068.33165633  .00000202  00000+0  15046-4 0  9997,2 62072  53.1590  92.3481 0001451  91.2978 268.8193 15.39623627 17511,15.39623627,0.0001451,LEO
62073,STARLINK-32444,2024,93.53,-1.0,+,53.16,Active,0,LEO,USA,USA,Unknown,Unknown,Unknown,1 62073U 24217S   25068.38340610  .00000417  00000+0  20418-4 0  9990,2 62073  53.1602  92.6913 0001458  79.0577 281.0592 15.39621331 17469,15.39621331,0.0001458,LEO
62074,STARLINK-32619,2024,93.53,-1.0,+,53.16,Active,0,LEO,USA,USA,Unknown,Unknown,Unknown,1 62074U 24217T   25068.34094061  .00000214  00000+0  15329-4 0  9993,2 62074  53.1594  92.4037 0001481  64.3612 295.7545 15.39625596 17465,15.39625596,0.0001481,LEO
62075,STARLINK-32580,2024,93.53,-1.0,+,53.16,Active,0,LEO,USA,USA,Unknown,Unknown,Unknown,1 62075U 24217U   25068.49000986  .00000529  00000+0  23192-4 0  9999,2 62075  53.1598  91.9127 0001491 103.3980 256.7191 15.39630665 17486,15.39630665,0.0001491,LEO
62076,STARLINK-32617,2024,93.53,-1.0,+,53.16,Active,0,LEO,USA,USA,Unknown,Unknown,Unknown,1 62076U 24217V   25068.42974734 -.00000368  00000+0  79709-6 0  9993,2 62076  53.1609  92.2491 0001778  90.1795 269.9413 15.39624482 17475,15.39624482,0.0001778,LEO
62077,SZ-18 MODULE,2024,91.28,-1.0,+,41.47,Active,0,LEO,PRC,China,Unknown,Unknown,Unknown,1 62077U 24078F   25068.85901545  .00096157  00000+0  54557-3 0  9997,2 62077  41.4728 254.8851 0013201 293.6601  66.2858 15.77834260 19566,15.7783426,0.0013201,LEO
62079,SUPERVIEW NEO-2 03,2024,94.75,-1.0,+,97.44,Active,0,LEO,PRC,China,Unknown,Unknown,Unknown,1 62079U 24218B   25068.65654046  .00009993  00000+0  47050-3 0  9996,2 62079  97.4392  77.6346 0001658  88.1677 271.9748 15.19730728 15894,15.19730728,0.0001658,LEO
62080,SUPERVIEW NEO-2 04,2024,94.75,-1.0,+,97.44,Active,0,LEO,PRC,China,Unknown,Unknown,Unknown,1 62080U 24218C   25068.65653935  .00009652  00000+0  45456-3 0  9994,2 62080  97.4392  77.6402 0001399 112.5891 247.5492 15.19730525 15891,15.19730525,0.0001399,LEO
62081,KINEIS-5C,2024,97.81,-1.0,+,97.96,Active,0,LEO,New Zealand,France,Unknown,Unknown,Unknown,1 62081U 24219A   25068.88392702  .00003262  00000+0  52423-3 0  9996,2 62081  97.9582 232.1313 0002411  77.9553 282.1924 14.72254429 15439,14.72254429,0.0002411,LEO
62082,KINEIS-5D,2024,97.72,-1.0,+,97.96,Active,0,LEO,New Zealand,France,Unknown,Unknown,Unknown,1 62082U 24219B   25068.85425989  .00002969  00000+0  46622-3 0  9995,2 62082  97.9581 232.1687 0002404  65.7200 294.4259 14.73335346 15435,14.73335346,0.0002404,LEO
62083,KINEIS-5E,2024,97.71,-1.0,+,97.96,Active,0,LEO,New Zealand,France,Unknown,Unknown,Unknown,1 62083U 24219C   25068.78587104  .00003131  00000+0  48724-3 0  9993,2 62083  97.9582 232.1028 0001430  82.3990 277.7381 14.73688867 15423,14.73688867,0.000143,LEO
62084,KINEIS-5A,2024,97.77,-1.0,+,97.96,Active,0,LEO,New Zealand,France,Unknown,Unknown,Unknown,1 62084U 24219D   25068.83063734  .00002339  00000+0  37249-3 0  9997,2 62084  97.9588 232.2021 0001915  19.9128 340.2155 14.72925393 15434,14.72925393,0.0001915,LEO
62085,KINEIS-5B,2024,97.54,-1.0,+,97.96,Active,0,LEO,New Zealand,France,Unknown,Unknown,Unknown,1 62085U 24219E   25068.78408522  .00003628  00000+0  52985-3 0  9996,2 62085  97.9578 232.2603 0001185 357.9955   2.1250 14.76341766 15432,14.76341766,0.0001185,LEO
62088,STARLINK-11384 [DTC],2024,91.67,-1.0,+,43.0,Active,0,LEO,USA,USA,Unknown,Unknown,Unknown,1 62088U 24220A   25068.49782926  .00001418  00000+0  14539-4 0  9991,2 62088  43.0013  84.7153 0001063 257.1579 102.9170 15.70840717 17616,15.70840717,0.0001063,LEO
62089,STARLINK-11379 [DTC],2024,91.67,-1.0,+,43.0,Active,0,LEO,USA,USA,Unknown,Unknown,Unknown,1 62089U 24220B   25068.04745285 -.00004877  00000+0 -34548-4 0  9996,2 62089  43.0013  87.3605 0002457 265.0614  94.9973 15.70820653 17443,15.70820653,0.0002457,LEO
62090,STARLINK-11387 [DTC],2024,91.67,-1.0,+,43.0,Active,0,LEO,USA,USA,Unknown,Unknown,Unknown,1 62090U 24220C   25068.42363404  .00000616  00000+0  83025-5 0  9999,2 62090  43.0039  85.0174 0001636 273.9232  86.1449 15.70831630 17607,15.7083163,0.0001636,LEO
62091,STARLINK-11389 [DTC],2024,91.67,-1.0,+,43.0,Active,0,LEO,USA,USA,Unknown,Unknown,Unknown,1 62091U 24220D   25067.33738128  .00005463  00000+0  46017-4 0  9992,2 62091  42.9987  91.4844 0004282 295.1910  64.8513 15.70856100 17336,15.708561,0.0004282,LEO
62092,STARLINK-11388 [DTC],2024,91.67,-1.0,+,43.0,Active,0,LEO,USA,USA,Unknown,Unknown,Unknown,1 62092U 24220E   25068.41300497  .00003127  00000+0  27877-4 0  9995,2 62092  43.0052  84.9314 0001755 280.0194  80.0475 15.70823559 17508,15.70823559,0.0001755,LEO
62093,STARLINK-11345 [DTC],2024,91.67,-1.0,+,43.0,Active,0,LEO,USA,USA,Unknown,Unknown,Unknown,1 62093U 24220F   25068.21695459  .00000220  00000+0  52130-5 0  9991,2 62093  43.0012  86.0351 0001743 260.4926  99.5745 15.70831895 17474,15.70831895,0.0001743,LEO
62094,STARLINK-11381 [DTC],2024,91.67,-1.0,+,43.0,Active,0,LEO,USA,USA,Unknown,Unknown,Unknown,1 62094U 24220G   25068.40239446 -.00000554  00000+0 -81665-6 0  9991,2 62094  43.0039  84.8419 0002149 255.4148 104.6481 15.70834484 17502,15.70834484,0.0002149,LEO
62095,STARLINK-11369 [DTC],2024,91.67,-1.0,+,43.0,Active,0,LEO,USA,USA,Unknown,Unknown,Unknown,1 62095U 24220H   25068.39707999  .00001250  00000+0  13238-4 0  9994,2 62095  43.0022  84.7999 0001741 261.6685  98.3985 15.70840688 17601,15.70840688,0.0001741,LEO
62096,STARLINK-11303 [DTC],2024,91.67,-1.0,+,43.0,Active,0,LEO,USA,USA,Unknown,Unknown,Unknown,1 62096U 24220J   25068.45533320  .00002025  00000+0  19266-4 0  9995,2 62096  43.0015  84.3751 0001777 249.6546 110.4131 15.70855241 17618,15.70855241,0.0001777,LEO
62097,STARLINK-11367 [DTC],2024,91.67,-1.0,+,43.0,Active,0,LEO,USA,USA,Unknown,Unknown,Unknown,1 62097U 24220K   25068.06855498 -.00000084  00000+0  28400-5 0  9991,2 62097  43.0011  86.6302 0001561 265.5207  94.5482 15.70830235 17554,15.70830235,0.0001561,LEO
62098,STARLINK-11386 [DTC],2024,91.67,-1.0,+,43.0,Active,0,LEO,USA,USA,Unknown,Unknown,Unknown,1 62098U 24220L   25068.31755407  .00003263  00000+0  28891-4 0  9993,2 62098  43.0008  85.0543 0001152 251.4811 108.5931 15.70856404 17496,15.70856404,0.0001152,LEO
62099,STARLINK-11380 [DTC],2024,91.67,-1.0,+,43.0,Active,0,LEO,USA,USA,Unknown,Unknown,Unknown,1 62099U 24220M   25068.50301097 -.00001076  00000+0 -48828-5 0  9992,2 62099  43.0056  83.8631 0002493 256.3604 103.6987 15.70837961 17525,15.70837961,0.0002493,LEO
62100,STARLINK-33566,2024,93.16,-1.0,+,43.0,Active,0,LEO,USA,USA,Unknown,Unknown,Unknown,1 62100U 24220N   25068.15905233  .00060041  00000+0  11979-2 0  9997,2 62100  42.9897 107.6320 0001844  21.8973 338.1964 15.46016637 17311,15.46016637,0.0001844,LEO
62101,STARLINK-33545,2024,94.27,-1.0,+,43.0,Active,0,LEO,USA,USA,Unknown,Unknown,Unknown,1 62101U 24220P   25068.00002315  .00061412  00000+0  22241-2 0  9998,2 62101  43.0024 110.5110 0001425 260.8555 208.2888 15.27559059  5950,15.27559059,0.0001425,LEO
62102,STARLINK-33562,2024,94.27,-1.0,+,43.0,Active,0,LEO,USA,USA,Unknown,Unknown,Unknown,1 62102U 24220Q   25068.58024512  .00001398  00000+0  60315-4 0  9998,2 62102  42.9989 107.3781 0001345 238.7765 121.2955 15.27589873 17189,15.27589873,0.0001345,LEO
62103,STARLINK-33554,2024,94.27,-1.0,+,43.0,Active,0,LEO,USA,USA,Unknown,Unknown,Unknown,1 62103U 24220R   25068.00002315  .00058311  00000+0  21140-2 0  9991,2 62103  43.0024 110.4605 0001335 264.9922 225.3847 15.27545818 17027,15.27545818,0.0001335,LEO
62104,STARLINK-33555,2024,94.27,-1.0,+,43.0,Active,0,LEO,USA,USA,Unknown,Unknown,Unknown,1 62104U 24220S   25068.27131396 -.00000248  00000+0  51149-6 0  9996,2 62104  43.0008 109.3582 0001193 264.9813  95.0903 15.27576791 17278,15.27576791,0.0001193,LEO
62105,STARLINK-33542,2024,91.09,-1.0,P,42.99,Active,0,LEO,USA,USA,Unknown,Unknown,Unknown,1 62105U 24220T   25068.39859976  .00004131  00000+0  23333-4 0  9997,2 62105  42.9861  81.1593 0001742 322.1934  37.8814 15.80838716 17658,15.80838716,0.0001742,LEO
62106,STARLINK-33557,2024,90.99,-1.0,+,43.0,Active,0,LEO,USA,USA,Unknown,Unknown,Unknown,1 62106U 24220U   25068.39119156  .00023657  00000+0  11131-3 0  9993,2 62106  42.9986  93.5597 0002516 298.8937  61.1682 15.82634595 17328,15.82634595,0.0002516,LEO
62107,STARLINK-33559,2024,94.27,-1.0,+,43.0,Active,0,LEO,USA,USA,Unknown,Unknown,Unknown,1 62107U 24220V   25068.39822858  .00001108  00000+0  49762-4 0  9993,2 62107  43.0003 108.5939 0000805 269.9847  90.0913 15.27582141 17322,15.27582141,8.05e-05,LEO
